[
    {
        "Altitude(m)": 717062.1014599863,
        "Argument of Periapsis(deg)": 0.009112096949301655,
        "Eccentricity": 0.0,
        "Inclination(deg)": 45.0,
        "Latitude(deg)": -43.16218350403724,
        "Longitude(deg)": 143.26144813512323,
        "Mean Anomaly(deg)": -105.31892668201533,
        "RAAN(deg)": 354.9913984468334,
        "Satellite Name": "Constellation 1 1577",
        "Satellite Number": 1577,
        "Semi-Major Axis(m)": 7083131.272910544,
        "Time(s)": 152
    },
    {
        "Altitude(m)": 717068.4795699654,
        "Argument of Periapsis(deg)": 0.009172044955547059,
        "Eccentricity": 0.0,
        "Inclination(deg)": 45.0,
        "Latitude(deg)": -43.17761780906067,
        "Longitude(deg)": 143.3374356909078,
        "Mean Anomaly(deg)": -105.2582255417654,
        "RAAN(deg)": 354.99134185766786,
        "Satellite Name": "Constellation 1 1577",
        "Satellite Number": 1577,
        "Semi-Major Axis(m)": 7083131.272910544,
        "Time(s)": 153
    },
    {
        "Altitude(m)": 717074.8342777501,
        "Argument of Periapsis(deg)": 0.009231992961792466,
        "Eccentricity": 0.0,
        "Inclination(deg)": 45.0,
        "Latitude(deg)": -43.19299598077342,
        "Longitude(deg)": 143.41346343580042,
        "Mean Anomaly(deg)": -105.19752440151561,
        "RAAN(deg)": 354.9912852685023,
        "Satellite Name": "Constellation 1 1577",
        "Satellite Number": 1577,
        "Semi-Major Axis(m)": 7083131.272910544,
        "Time(s)": 154
    },
    {
        "Altitude(m)": 717081.1655599414,
        "Argument of Periapsis(deg)": 0.009291940968037872,
        "Eccentricity": 0.0,
        "Inclination(deg)": 45.0,
        "Latitude(deg)": -43.20831796157607,
        "Longitude(deg)": 143.48953126504068,
        "Mean Anomaly(deg)": -105.13682326126568,
        "RAAN(deg)": 354.99122867933676,
        "Satellite Name": "Constellation 1 1577",
        "Satellite Number": 1577,
        "Semi-Major Axis(m)": 7083131.272910544,
        "Time(s)": 155
    },
    {
        "Altitude(m)": 717087.4733932341,
        "Argument of Periapsis(deg)": 0.009351888974283276,
        "Eccentricity": 0.0,
        "Inclination(deg)": 45.0,
        "Latitude(deg)": -43.22358369400584,
        "Longitude(deg)": 143.5656389052158,
        "Mean Anomaly(deg)": -105.07612212101574,
        "RAAN(deg)": 354.9911720901712,
        "Satellite Name": "Constellation 1 1577",
        "Satellite Number": 1577,
        "Semi-Major Axis(m)": 7083131.272910544,
        "Time(s)": 156
    },
    {
        "Altitude(m)": 717093.7577544065,
        "Argument of Periapsis(deg)": 0.00941183698052868,
        "Eccentricity": 0.0,
        "Inclination(deg)": 45.0,
        "Latitude(deg)": -43.238793120738755,
        "Longitude(deg)": 143.64178658664918,
        "Mean Anomaly(deg)": -105.01542098076585,
        "RAAN(deg)": 354.9911155010056,
        "Satellite Name": "Constellation 1 1577",
        "Satellite Number": 1577,
        "Semi-Major Axis(m)": 7083131.272910544,
        "Time(s)": 157
    },
    {
        "Altitude(m)": 717100.0186203175,
        "Argument of Periapsis(deg)": 0.009471784986774088,
        "Eccentricity": 0.0,
        "Inclination(deg)": 45.0,
        "Latitude(deg)": -43.253946184589005,
        "Longitude(deg)": 143.71797403482003,
        "Mean Anomaly(deg)": -104.95471984051596,
        "RAAN(deg)": 354.99105891184,
        "Satellite Name": "Constellation 1 1577",
        "Satellite Number": 1577,
        "Semi-Major Axis(m)": 7083131.272910544,
        "Time(s)": 158
    },
    {
        "Altitude(m)": 717106.2559679226,
        "Argument of Periapsis(deg)": 0.009531732993019492,
        "Eccentricity": 0.0,
        "Inclination(deg)": 45.0,
        "Latitude(deg)": -43.269042828510784,
        "Longitude(deg)": 143.79420114275106,
        "Mean Anomaly(deg)": -104.89401870026603,
        "RAAN(deg)": 354.99100232267443,
        "Satellite Name": "Constellation 1 1577",
        "Satellite Number": 1577,
        "Semi-Major Axis(m)": 7083131.272910544,
        "Time(s)": 159
    },
    {
        "Altitude(m)": 717112.4697742503,
        "Argument of Periapsis(deg)": 0.009591680999264898,
        "Eccentricity": 0.0,
        "Inclination(deg)": 45.0,
        "Latitude(deg)": -43.284082995598965,
        "Longitude(deg)": 143.87046780291107,
        "Mean Anomaly(deg)": -104.8333175600161,
        "RAAN(deg)": 354.9909457335089,
        "Satellite Name": "Constellation 1 1577",
        "Satellite Number": 1577,
        "Semi-Major Axis(m)": 7083131.272910544,
        "Time(s)": 160
    },
    {
        "Altitude(m)": 717118.6600164231,
        "Argument of Periapsis(deg)": 0.009651629005510304,
        "Eccentricity": 0.0,
        "Inclination(deg)": 45.0,
        "Latitude(deg)": -43.299066629089964,
        "Longitude(deg)": 143.94677390721608,
        "Mean Anomaly(deg)": -104.77261641976631,
        "RAAN(deg)": 354.9908891443433,
        "Satellite Name": "Constellation 1 1577",
        "Satellite Number": 1577,
        "Semi-Major Axis(m)": 7083131.272910544,
        "Time(s)": 161
    },
    {
        "Altitude(m)": 717124.826671647,
        "Argument of Periapsis(deg)": 0.00971157701175571,
        "Eccentricity": 0.0,
        "Inclination(deg)": 45.0,
        "Latitude(deg)": -43.31399367236279,
        "Longitude(deg)": 144.02311934703044,
        "Mean Anomaly(deg)": -104.71191527951638,
        "RAAN(deg)": 354.99083255517775,
        "Satellite Name": "Constellation 1 1577",
        "Satellite Number": 1577,
        "Semi-Major Axis(m)": 7083131.272910544,
        "Time(s)": 162
    },
    {
        "Altitude(m)": 717130.9697172132,
        "Argument of Periapsis(deg)": 0.009771525018001118,
        "Eccentricity": 0.0,
        "Inclination(deg)": 45.0,
        "Latitude(deg)": -43.32886406893953,
        "Longitude(deg)": 144.0995038450688,
        "Mean Anomaly(deg)": -104.65121413926647,
        "RAAN(deg)": 354.99077596601217,
        "Satellite Name": "Constellation 1 1577",
        "Satellite Number": 1577,
        "Semi-Major Axis(m)": 7083131.272910544,
        "Time(s)": 163
    },
    {
        "Altitude(m)": 717137.0891305036,
        "Argument of Periapsis(deg)": 0.00983147302424652,
        "Eccentricity": 0.0,
        "Inclination(deg)": 45.0,
        "Latitude(deg)": -43.34367776248726,
        "Longitude(deg)": 144.175927627785,
        "Mean Anomaly(deg)": -104.59051299901661,
        "RAAN(deg)": 354.9907193768466,
        "Satellite Name": "Constellation 1 1577",
        "Satellite Number": 1577,
        "Semi-Major Axis(m)": 7083131.272910544,
        "Time(s)": 164
    },
    {
        "Altitude(m)": 717143.1848889769,
        "Argument of Periapsis(deg)": 0.009891421030491928,
        "Eccentricity": 0.0,
        "Inclination(deg)": 45.0,
        "Latitude(deg)": -43.35843469681756,
        "Longitude(deg)": 144.25239041679157,
        "Mean Anomaly(deg)": -104.52981185876665,
        "RAAN(deg)": 354.99066278768106,
        "Satellite Name": "Constellation 1 1577",
        "Satellite Number": 1577,
        "Semi-Major Axis(m)": 7083131.272910544,
        "Time(s)": 165
    },
    {
        "Altitude(m)": 717149.2569701892,
        "Argument of Periapsis(deg)": 0.009951369036737332,
        "Eccentricity": 0.0,
        "Inclination(deg)": 45.0,
        "Latitude(deg)": -43.373134815888335,
        "Longitude(deg)": 144.32889210124682,
        "Mean Anomaly(deg)": -104.46911071851672,
        "RAAN(deg)": 354.9906061985155,
        "Satellite Name": "Constellation 1 1577",
        "Satellite Number": 1577,
        "Semi-Major Axis(m)": 7083131.272910544,
        "Time(s)": 166
    },
    {
        "Altitude(m)": 717155.3053517743,
        "Argument of Periapsis(deg)": 0.010011317042982738,
        "Eccentricity": 0.0,
        "Inclination(deg)": 45.0,
        "Latitude(deg)": -43.38777806380446,
        "Longitude(deg)": 144.40543256975897,
        "Mean Anomaly(deg)": -104.40840957826688,
        "RAAN(deg)": 354.9905496093499,
        "Satellite Name": "Constellation 1 1577",
        "Satellite Number": 1577,
        "Semi-Major Axis(m)": 7083131.272910544,
        "Time(s)": 167
    },
    {
        "Altitude(m)": 717161.3300114522,
        "Argument of Periapsis(deg)": 0.010071265049228144,
        "Eccentricity": 0.0,
        "Inclination(deg)": 45.0,
        "Latitude(deg)": -43.40236438481872,
        "Longitude(deg)": 144.48201171038687,
        "Mean Anomaly(deg)": -104.34770843801695,
        "RAAN(deg)": 354.9904930201843,
        "Satellite Name": "Constellation 1 1577",
        "Satellite Number": 1577,
        "Semi-Major Axis(m)": 7083131.272910544,
        "Time(s)": 168
    },
    {
        "Altitude(m)": 717167.3309270396,
        "Argument of Periapsis(deg)": 0.01013121305547355,
        "Eccentricity": 0.0,
        "Inclination(deg)": 45.0,
        "Latitude(deg)": -43.41689372333273,
        "Longitude(deg)": 144.55862941064004,
        "Mean Anomaly(deg)": -104.28700729776702,
        "RAAN(deg)": 354.99043643101874,
        "Satellite Name": "Constellation 1 1577",
        "Satellite Number": 1577,
        "Semi-Major Axis(m)": 7083131.272910544,
        "Time(s)": 169
    },
    {
        "Altitude(m)": 717173.3080764317,
        "Argument of Periapsis(deg)": 0.010191161061718957,
        "Eccentricity": 0.0,
        "Inclination(deg)": 45.0,
        "Latitude(deg)": -43.43136602389763,
        "Longitude(deg)": 144.63528555747925,
        "Mean Anomaly(deg)": -104.22630615751717,
        "RAAN(deg)": 354.9903798418532,
        "Satellite Name": "Constellation 1 1577",
        "Satellite Number": 1577,
        "Semi-Major Axis(m)": 7083131.272910544,
        "Time(s)": 170
    }
]